[{"OBJECT_NAME":"SZ-21 MODULE","OBJECT_ID":"2025-246C","EPOCH":"2026-03-07T11:06:32.685984","MEAN_MOTION":15.68341086,"ECCENTRICITY":0.00014291,"INCLINATION":41.4737,"RA_OF_ASC_NODE":217.0662,"ARG_OF_PERICENTER":294.3949,"MEAN_ANOMALY":65.6744,"EPHEMERIS_TYPE":0,"CLASSIFICATION_TYPE":"U","NORAD_CAT_ID":66515,"ELEMENT_SET_NO":999,"REV_AT_EPOCH":1772,"BSTAR":0.00043322838,"MEAN_MOTION_DOT":0.00050102,"MEAN_MOTION_DDOT":0},{"OBJECT_NAME":"SHENZHOU-22","OBJECT_ID":"2025-272A","EPOCH":"2026-03-07T14:29:25.066176","MEAN_MOTION":15.60534588,"ECCENTRICITY":0.00069595,"INCLINATION":41.4662,"RA_OF_ASC_NODE":220.8523,"ARG_OF_PERICENTER":260.1334,"MEAN_ANOMALY":99.8719,"EPHEMERIS_TYPE":0,"CLASSIFICATION_TYPE":"U","NORAD_CAT_ID":66645,"ELEMENT_SET_NO":999,"REV_AT_EPOCH":26752,"BSTAR":0.00030831615,"MEAN_MOTION_DOT":0.00025948,"MEAN_MOTION_DDOT":0},{"OBJECT_NAME":"SOYUZ-MS 28","OBJECT_ID":"2025-275A","EPOCH":"2026-03-07T12:18:20.403360","MEAN_MOTION":15.48507964,"ECCENTRICITY":0.00081324,"INCLINATION":51.6318,"RA_OF_ASC_NODE":83.1189,"ARG_OF_PERICENTER":167.0679,"MEAN_ANOMALY":193.052,"EPHEMERIS_TYPE":0,"CLASSIFICATION_TYPE":"U","NORAD_CAT_ID":66664,"ELEMENT_SET_NO":999,"REV_AT_EPOCH":55452,"BSTAR":0.00027601504,"MEAN_MOTION_DOT":0.00014539,"MEAN_MOTION_DDOT":0},{"OBJECT_NAME":"DUPLEX","OBJECT_ID":"1998-067XS","EPOCH":"2026-03-07T06:34:54.012864","MEAN_MOTION":15.56027322,"ECCENTRICITY":0.0002224,"INCLINATION":51.6285,"RA_OF_ASC_NODE":81.5298,"ARG_OF_PERICENTER":101.9633,"MEAN_ANOMALY":258.1608,"EPHEMERIS_TYPE":0,"CLASSIFICATION_TYPE":"U","NORAD_CAT_ID":66906,"ELEMENT_SET_NO":999,"REV_AT_EPOCH":1475,"BSTAR":0.00056716,"MEAN_MOTION_DOT":0.00039972,"MEAN_MOTION_DDOT":0},{"OBJECT_NAME":"ISS OBJECT XT","OBJECT_ID":"1998-067XT","EPOCH":"2026-03-07T10:00:34.337376","MEAN_MOTION":15.68423465,"ECCENTRICITY":0.0004673,"INCLINATION":51.6248,"RA_OF_ASC_NODE":77.2205,"ARG_OF_PERICENTER":64.6105,"MEAN_ANOMALY":295.5375,"EPHEMERIS_TYPE":0,"CLASSIFICATION_TYPE":"U","NORAD_CAT_ID":66907,"ELEMENT_SET_NO":999,"REV_AT_EPOCH":1482,"BSTAR":0.0016435274,"MEAN_MOTION_DOT":0.00193086,"MEAN_MOTION_DDOT":0},{"OBJECT_NAME":"ISS OBJECT XU","OBJECT_ID":"1998-067XU","EPOCH":"2026-03-07T13:01:41.906496","MEAN_MOTION":15.6858203,"ECCENTRICITY":0.00048972,"INCLINATION":51.6244,"RA_OF_ASC_NODE":76.5569,"ARG_OF_PERICENTER":67.6315,"MEAN_ANOMALY":292.52,"EPHEMERIS_TYPE":0,"CLASSIFICATION_TYPE":"U","NORAD_CAT_ID":66908,"ELEMENT_SET_NO":999,"REV_AT_EPOCH":1484,"BSTAR":0.0015855282,"MEAN_MOTION_DOT":0.00187348,"MEAN_MOTION_DDOT":0},{"OBJECT_NAME":"SILVERSAT","OBJECT_ID":"1998-067XV","EPOCH":"2026-03-07T07:02:35.366496","MEAN_MOTION":15.71158496,"ECCENTRICITY":0.0005453,"INCLINATION":51.6247,"RA_OF_ASC_NODE":77.1411,"ARG_OF_PERICENTER":60.9415,"MEAN_ANOMALY":299.2128,"EPHEMERIS_TYPE":0,"CLASSIFICATION_TYPE":"U","NORAD_CAT_ID":66909,"ELEMENT_SET_NO":999,"REV_AT_EPOCH":1481,"BSTAR":0.0019116,"MEAN_MOTION_DOT":0.00253597,"MEAN_MOTION_DDOT":0},{"OBJECT_NAME":"ISS OBJECT XW","OBJECT_ID":"1998-067XW","EPOCH":"2026-03-07T06:48:18.690624","MEAN_MOTION":15.67806072,"ECCENTRICITY":0.0005017,"INCLINATION":51.6239,"RA_OF_ASC_NODE":77.821,"ARG_OF_PERICENTER":72.1474,"MEAN_ANOMALY":288.0069,"EPHEMERIS_TYPE":0,"CLASSIFICATION_TYPE":"U","NORAD_CAT_ID":66910,"ELEMENT_SET_NO":999,"REV_AT_EPOCH":1480,"BSTAR":0.0015885,"MEAN_MOTION_DOT":0.00181703,"MEAN_MOTION_DDOT":0},{"OBJECT_NAME":"ISS OBJECT XX","OBJECT_ID":"1998-067XX","EPOCH":"2026-03-07T10:07:44.428800","MEAN_MOTION":15.74068362,"ECCENTRICITY":0.00069652,"INCLINATION":51.6213,"RA_OF_ASC_NODE":75.7321,"ARG_OF_PERICENTER":69.2651,"MEAN_ANOMALY":290.9094,"EPHEMERIS_TYPE":0,"CLASSIFICATION_TYPE":"U","NORAD_CAT_ID":66911,"ELEMENT_SET_NO":999,"REV_AT_EPOCH":1483,"BSTAR":0.0019880489,"MEAN_MOTION_DOT":0.00300355,"MEAN_MOTION_DDOT":0},{"OBJECT_NAME":"ISS OBJECT XY","OBJECT_ID":"1998-067XY","EPOCH":"2026-03-07T09:48:03.033216","MEAN_MOTION":15.6318327,"ECCENTRICITY":0.00031072,"INCLINATION":51.6266,"RA_OF_ASC_NODE":78.6712,"ARG_OF_PERICENTER":76.3903,"MEAN_ANOMALY":283.7437,"EPHEMERIS_TYPE":0,"CLASSIFICATION_TYPE":"U","NORAD_CAT_ID":66912,"ELEMENT_SET_NO":999,"REV_AT_EPOCH":1479,"BSTAR":0.00124185,"MEAN_MOTION_DOT":0.00116951,"MEAN_MOTION_DDOT":0},{"OBJECT_NAME":"ISS OBJECT XZ","OBJECT_ID":"1998-067XZ","EPOCH":"2026-03-07T08:16:26.908032","MEAN_MOTION":15.51606883,"ECCENTRICITY":0.00094625,"INCLINATION":51.6303,"RA_OF_ASC_NODE":83.4992,"ARG_OF_PERICENTER":177.748,"MEAN_ANOMALY":182.3554,"EPHEMERIS_TYPE":0,"CLASSIFICATION_TYPE":"U","NORAD_CAT_ID":67683,"ELEMENT_SET_NO":999,"REV_AT_EPOCH":442,"BSTAR":0.0008504496,"MEAN_MOTION_DOT":0.00051344,"MEAN_MOTION_DDOT":0},{"OBJECT_NAME":"GXIBA-1","OBJECT_ID":"1998-067YA","EPOCH":"2026-03-07T01:31:56.356608","MEAN_MOTION":15.53815499,"ECCENTRICITY":0.00108926,"INCLINATION":51.6298,"RA_OF_ASC_NODE":84.6245,"ARG_OF_PERICENTER":167.0714,"MEAN_ANOMALY":193.0558,"EPHEMERIS_TYPE":0,"CLASSIFICATION_TYPE":"U","NORAD_CAT_ID":67684,"ELEMENT_SET_NO":999,"REV_AT_EPOCH":438,"BSTAR":0.0012346692,"MEAN_MOTION_DOT":0.00081342,"MEAN_MOTION_DDOT":0},{"OBJECT_NAME":"CORAL","OBJECT_ID":"1998-067YB","EPOCH":"2026-03-07T11:16:16.503744","MEAN_MOTION":15.51949529,"ECCENTRICITY":0.00113881,"INCLINATION":51.6305,"RA_OF_ASC_NODE":82.8329,"ARG_OF_PERICENTER":174.8728,"MEAN_ANOMALY":185.238,"EPHEMERIS_TYPE":0,"CLASSIFICATION_TYPE":"U","NORAD_CAT_ID":67685,"ELEMENT_SET_NO":999,"REV_AT_EPOCH":444,"BSTAR":0.0009374507,"MEAN_MOTION_DOT":0.00057439,"MEAN_MOTION_DDOT":0},{"OBJECT_NAME":"ISS OBJECT YC","OBJECT_ID":"1998-067YC","EPOCH":"2026-03-07T06:31:17.520384","MEAN_MOTION":15.52411971,"ECCENTRICITY":0.0007882,"INCLINATION":51.6305,"RA_OF_ASC_NODE":83.7633,"ARG_OF_PERICENTER":141.8436,"MEAN_ANOMALY":218.3113,"EPHEMERIS_TYPE":0,"CLASSIFICATION_TYPE":"U","NORAD_CAT_ID":67686,"ELEMENT_SET_NO":999,"REV_AT_EPOCH":441,"BSTAR":0.001142,"MEAN_MOTION_DOT":0.00071287,"MEAN_MOTION_DDOT":0},{"OBJECT_NAME":"LEOPARD","OBJECT_ID":"1998-067YD","EPOCH":"2026-03-07T11:18:55.630080","MEAN_MOTION":15.51785936,"ECCENTRICITY":0.00078046,"INCLINATION":51.6311,"RA_OF_ASC_NODE":82.8468,"ARG_OF_PERICENTER":146.5484,"MEAN_ANOMALY":213.6,"EPHEMERIS_TYPE":0,"CLASSIFICATION_TYPE":"U","NORAD_CAT_ID":67687,"ELEMENT_SET_NO":999,"REV_AT_EPOCH":436,"BSTAR":0.00089855352,"MEAN_MOTION_DOT":0.00054618,"MEAN_MOTION_DDOT":0},{"OBJECT_NAME":"ISS OBJECT YE","OBJECT_ID":"1998-067YE","EPOCH":"2026-03-07T05:01:38.352288","MEAN_MOTION":15.52177677,"ECCENTRICITY":0.0007791,"INCLINATION":51.6306,"RA_OF_ASC_NODE":84.0971,"ARG_OF_PERICENTER":142.0067,"MEAN_ANOMALY":218.1474,"EPHEMERIS_TYPE":0,"CLASSIFICATION_TYPE":"U","NORAD_CAT_ID":67688,"ELEMENT_SET_NO":999,"REV_AT_EPOCH":432,"BSTAR":0.0010314,"MEAN_MOTION_DOT":0.00063728,"MEAN_MOTION_DDOT":0}]
